{"type": "FeatureCollection", "features": [{"type": "Feature", "properties": {"norad_id": 22675, "name": "COSMOS 2251", "group": "cosmos-2251-debris", "lat": 52.21813260685882, "lon": 86.74549993334327, "alt_km": 784.0315678383276, "timestamp": "2025-12-27T18:38:03.870158+00:00", "meta": {"OBJECT_NAME": "COSMOS 2251", "OBJECT_ID": "1993-036A", "EPOCH": "2025-12-27T06:19:46.520832", "MEAN_MOTION": 14.33209291, "ECCENTRICITY": 0.0024555, "INCLINATION": 74.04, "RA_OF_ASC_NODE": 289.3466, "ARG_OF_PERICENTER": 7.6684, "MEAN_ANOMALY": 352.4838, "EPHEMERIS_TYPE": 0, "CLASSIFICATION_TYPE": "U", "NORAD_CAT_ID": 22675, "ELEMENT_SET_NO": 999, "REV_AT_EPOCH": 69981, "BSTAR": 6.3396e-05, "MEAN_MOTION_DOT": 1.49e-06, "MEAN_MOTION_DDOT": 0}, "tle": {"line1": "1 22675U 93036A   25361.26373288  .00000149  00000+0  63396-4 0  9993", "line2": "2 22675  74.0400 289.3466 0024555   7.6684 352.4838 14.33209291699819"}}, "geometry": {"type": "Point", "coordinates": [86.74549993334327, 52.21813260685882]}}, {"type": "Feature", "properties": {"norad_id": 33757, "name": "COSMOS 2251 DEB", "group": "cosmos-2251-debris", "lat": 47.864637512598534, "lon": 97.71595875470474, "alt_km": 789.7130065104402, "timestamp": "2025-12-27T18:38:03.870185+00:00", "meta": {"OBJECT_NAME": "COSMOS 2251 DEB", "OBJECT_ID": "1993-036E", "EPOCH": "2025-12-27T07:03:15.454368", "MEAN_MOTION": 14.32584823, "ECCENTRICITY": 0.0015702, "INCLINATION": 74.0376, "RA_OF_ASC_NODE": 297.0401, "ARG_OF_PERICENTER": 308.2672, "MEAN_ANOMALY": 213.7707, "EPHEMERIS_TYPE": 0, "CLASSIFICATION_TYPE": "U", "NORAD_CAT_ID": 33757, "ELEMENT_SET_NO": 999, "REV_AT_EPOCH": 88204, "BSTAR": 5.5084e-05, "MEAN_MOTION_DOT": 1.24e-06, "MEAN_MOTION_DDOT": 0}, "tle": {"line1": "1 33757U 93036E   25361.29392887  .00000124  00000+0  55084-4 0  9993", "line2": "2 33757  74.0376 297.0401 0015702 308.2672 213.7707 14.32584823882049"}}, "geometry": {"type": "Point", "coordinates": [97.71595875470474, 47.864637512598534]}}, {"type": "Feature", "properties": {"norad_id": 33758, "name": "COSMOS 2251 DEB", "group": "cosmos-2251-debris", "lat": 24.42999620493526, "lon": -165.81802520869942, "alt_km": 727.4416285726948, "timestamp": "2025-12-27T18:38:03.870200+00:00", "meta": {"OBJECT_NAME": "COSMOS 2251 DEB", "OBJECT_ID": "1993-036F", "EPOCH": "2025-12-27T12:02:01.377312", "MEAN_MOTION": 14.51682856, "ECCENTRICITY": 0.001706, "INCLINATION": 74.0271, "RA_OF_ASC_NODE": 187.2241, "ARG_OF_PERICENTER": 252.935, "MEAN_ANOMALY": 135.7719, "EPHEMERIS_TYPE": 0, "CLASSIFICATION_TYPE": "U", "NORAD_CAT_ID": 33758, "ELEMENT_SET_NO": 999, "REV_AT_EPOCH": 88519, "BSTAR": 0.00092421, "MEAN_MOTION_DOT": 3.689e-05, "MEAN_MOTION_DDOT": 0}, "tle": {"line1": "1 33758U 93036F   25361.50140483  .00003689  00000+0  92421-3 0  9995", "line2": "2 33758  74.0271 187.2241 0017060 252.9350 135.7719 14.51682856885194"}}, "geometry": {"type": "Point", "coordinates": [-165.81802520869942, 24.42999620493526]}}, {"type": "Feature", "properties": {"norad_id": 33760, "name": "COSMOS 2251 DEB", "group": "cosmos-2251-debris", "lat": -4.005414808101637, "lon": 75.00979055467269, "alt_km": 790.0585115348449, "timestamp": "2025-12-27T18:38:03.870212+00:00", "meta": {"OBJECT_NAME": "COSMOS 2251 DEB", "OBJECT_ID": "1993-036H", "EPOCH": "2025-12-27T11:53:43.383264", "MEAN_MOTION": 14.35682456, "ECCENTRICITY": 0.0020509, "INCLINATION": 74.0316, "RA_OF_ASC_NODE": 254.3761, "ARG_OF_PERICENTER": 349.2665, "MEAN_ANOMALY": 184.1652, "EPHEMERIS_TYPE": 0, "CLASSIFICATION_TYPE": "U", "NORAD_CAT_ID": 33760, "ELEMENT_SET_NO": 999, "REV_AT_EPOCH": 88336, "BSTAR": 0.00011571, "MEAN_MOTION_DOT": 3.09e-06, "MEAN_MOTION_DDOT": 0}, "tle": {"line1": "1 33760U 93036H   25361.49564101  .00000309  00000+0  11571-3 0  9996", "line2": "2 33760  74.0316 254.3761 0020509 349.2665 184.1652 14.35682456883360"}}, "geometry": {"type": "Point", "coordinates": [75.00979055467269, -4.005414808101637]}}, {"type": "Feature", "properties": {"norad_id": 33761, "name": "COSMOS 2251 DEB", "group": "cosmos-2251-debris", "lat": 51.538815403965806, "lon": 23.139804519954275, "alt_km": 761.469036405183, "timestamp": "2025-12-27T18:38:03.870224+00:00", "meta": {"OBJECT_NAME": "COSMOS 2251 DEB", "OBJECT_ID": "1993-036J", "EPOCH": "2025-12-27T01:59:50.932032", "MEAN_MOTION": 14.42583878, "ECCENTRICITY": 0.00233609, "INCLINATION": 74.0346, "RA_OF_ASC_NODE": 225.5505, "ARG_OF_PERICENTER": 303.8689, "MEAN_ANOMALY": 182.9767, "EPHEMERIS_TYPE": 0, "CLASSIFICATION_TYPE": "U", "NORAD_CAT_ID": 33761, "ELEMENT_SET_NO": 999, "REV_AT_EPOCH": 88441, "BSTAR": 0.00042063651, "MEAN_MOTION_DOT": 1.374e-05, "MEAN_MOTION_DDOT": 0}, "tle": {"line1": "1 33761U 93036J   25361.08322838  .00001374  00000+0  42064-3 0  9995", "line2": "2 33761  74.0346 225.5505 0023360 303.8689 182.9767 14.42583878884416"}}, "geometry": {"type": "Point", "coordinates": [23.139804519954275, 51.538815403965806]}}, {"type": "Feature", "properties": {"norad_id": 33762, "name": "COSMOS 2251 DEB", "group": "cosmos-2251-debris", "lat": 12.716214329434731, "lon": -73.7612471414716, "alt_km": 770.9094254201364, "timestamp": "2025-12-27T18:38:03.870235+00:00", "meta": {"OBJECT_NAME": "COSMOS 2251 DEB", "OBJECT_ID": "1993-036K", "EPOCH": "2025-12-27T12:42:02.181024", "MEAN_MOTION": 14.33668433, "ECCENTRICITY": 0.0015589, "INCLINATION": 74.0421, "RA_OF_ASC_NODE": 282.9885, "ARG_OF_PERICENTER": 341.177, "MEAN_ANOMALY": 196.5183, "EPHEMERIS_TYPE": 0, "CLASSIFICATION_TYPE": "U", "NORAD_CAT_ID": 33762, "ELEMENT_SET_NO": 999, "REV_AT_EPOCH": 88259, "BSTAR": 6.0732e-05, "MEAN_MOTION_DOT": 1.43e-06, "MEAN_MOTION_DDOT": 0}, "tle": {"line1": "1 33762U 93036K   25361.52919191  .00000143  00000+0  60732-4 0  9995", "line2": "2 33762  74.0421 282.9885 0015589 341.1770 196.5183 14.33668433882590"}}, "geometry": {"type": "Point", "coordinates": [-73.7612471414716, 12.716214329434731]}}, {"type": "Feature", "properties": {"norad_id": 33764, "name": "COSMOS 2251 DEB", "group": "cosmos-2251-debris", "lat": 64.8107456408734, "lon": 27.39296802950363, "alt_km": 755.592059776538, "timestamp": "2025-12-27T18:38:03.870246+00:00", "meta": {"OBJECT_NAME": "COSMOS 2251 DEB", "OBJECT_ID": "1993-036M", "EPOCH": "2025-12-27T01:56:49.225920", "MEAN_MOTION": 14.39538909, "ECCENTRICITY": 0.0023287, "INCLINATION": 74.0327, "RA_OF_ASC_NODE": 246.1752, "ARG_OF_PERICENTER": 209.065, "MEAN_ANOMALY": 259.026, "EPHEMERIS_TYPE": 0, "CLASSIFICATION_TYPE": "U", "NORAD_CAT_ID": 33764, "ELEMENT_SET_NO": 999, "REV_AT_EPOCH": 88363, "BSTAR": 0.00032189369, "MEAN_MOTION_DOT": 9.81e-06, "MEAN_MOTION_DDOT": 0}, "tle": {"line1": "1 33764U 93036M   25361.08112530  .00000981  00000+0  32189-3 0  9994", "line2": "2 33764  74.0327 246.1752 0023287 209.0650 259.0260 14.39538909883632"}}, "geometry": {"type": "Point", "coordinates": [27.39296802950363, 64.8107456408734]}}, {"type": "Feature", "properties": {"norad_id": 33765, "name": "COSMOS 2251 DEB", "group": "cosmos-2251-debris", "lat": 8.496504380005389, "lon": -40.45959102162862, "alt_km": 513.2043393300628, "timestamp": "2025-12-27T18:38:03.870257+00:00", "meta": {"OBJECT_NAME": "COSMOS 2251 DEB", "OBJECT_ID": "1993-036N", "EPOCH": "2025-12-27T11:47:45.422880", "MEAN_MOTION": 15.10792137, "ECCENTRICITY": 0.0064604, "INCLINATION": 74.0098, "RA_OF_ASC_NODE": 142.5852, "ARG_OF_PERICENTER": 232.431, "MEAN_ANOMALY": 190.1894, "EPHEMERIS_TYPE": 0, "CLASSIFICATION_TYPE": "U", "NORAD_CAT_ID": 33765, "ELEMENT_SET_NO": 999, "REV_AT_EPOCH": 89841, "BSTAR": 0.0016649, "MEAN_MOTION_DOT": 0.00029142, "MEAN_MOTION_DDOT": 0}, "tle": {"line1": "1 33765U 93036N   25361.49149795  .00029142  00000+0  16649-2 0  9995", "line2": "2 33765  74.0098 142.5852 0064604 232.4310 190.1894 15.10792137898414"}}, "geometry": {"type": "Point", "coordinates": [-40.45959102162862, 8.496504380005389]}}, {"type": "Feature", "properties": {"norad_id": 33766, "name": "COSMOS 2251 DEB", "group": "cosmos-2251-debris", "lat": -72.87005879724028, "lon": -5.467449038103021, "alt_km": 748.3371036960016, "timestamp": "2025-12-27T18:38:03.870269+00:00", "meta": {"OBJECT_NAME": "COSMOS 2251 DEB", "OBJECT_ID": "1993-036P", "EPOCH": "2025-12-27T00:40:27.014880", "MEAN_MOTION": 14.34977898, "ECCENTRICITY": 0.00649031, "INCLINATION": 74.1863, "RA_OF_ASC_NODE": 109.0325, "ARG_OF_PERICENTER": 308.5284, "MEAN_ANOMALY": 51.0061, "EPHEMERIS_TYPE": 0, "CLASSIFICATION_TYPE": "U", "NORAD_CAT_ID": 33766, "ELEMENT_SET_NO": 999, "REV_AT_EPOCH": 87950, "BSTAR": 0.00064158071, "MEAN_MOTION_DOT": 1.845e-05, "MEAN_MOTION_DDOT": 0}, "tle": {"line1": "1 33766U 93036P   25361.02809045  .00001845  00000+0  64158-3 0  9995", "line2": "2 33766  74.1863 109.0325 0064903 308.5284  51.0061 14.34977898879500"}}, "geometry": {"type": "Point", "coordinates": [-5.467449038103021, -72.87005879724028]}}, {"type": "Feature", "properties": {"norad_id": 33768, "name": "COSMOS 2251 DEB", "group": "cosmos-2251-debris", "lat": 15.726730342013868, "lon": -159.78612618329967, "alt_km": 795.793575149587, "timestamp": "2025-12-27T18:38:03.870280+00:00", "meta": {"OBJECT_NAME": "COSMOS 2251 DEB", "OBJECT_ID": "1993-036R", "EPOCH": "2025-12-27T07:05:11.017824", "MEAN_MOTION": 13.58466986, "ECCENTRICITY": 0.0366919, "INCLINATION": 74.0663, "RA_OF_ASC_NODE": 196.3764, "ARG_OF_PERICENTER": 350.9414, "MEAN_ANOMALY": 191.4546, "EPHEMERIS_TYPE": 0, "CLASSIFICATION_TYPE": "U", "NORAD_CAT_ID": 33768, "ELEMENT_SET_NO": 999, "REV_AT_EPOCH": 83493, "BSTAR": 0.0003706, "MEAN_MOTION_DOT": 3.97e-06, "MEAN_MOTION_DDOT": 0}, "tle": {"line1": "1 33768U 93036R   25361.29526641  .00000397  00000+0  37060-3 0  9997", "line2": "2 33768  74.0663 196.3764 0366919 350.9414 191.4546 13.58466986834934"}}, "geometry": {"type": "Point", "coordinates": [-159.78612618329967, 15.726730342013868]}}]}